[{"OBJECT_NAME":"STARLINK-2355","OBJECT_ID":"2021-021AM","EPOCH":"2026-03-09T19:41:10.307616","MEAN_MOTION":15.30220581,"ECCENTRICITY":8.852e-5,"INCLINATION":53.1596,"RA_OF_ASC_NODE":267.5423,"ARG_OF_PERICENTER":86.7609,"MEAN_ANOMALY":273.3493,"EPHEMERIS_TYPE":0,"CLASSIFICATION_TYPE":"U","NORAD_CAT_ID":47895,"ELEMENT_SET_NO":999,"REV_AT_EPOCH":27624,"BSTAR":0.00013043137,"MEAN_MOTION_DOT":3.508e-5,"MEAN_MOTION_DDOT":0},{"OBJECT_NAME":"SL-3 R\/B","OBJECT_ID":"1983-003B","EPOCH":"2026-03-09T21:31:00.897888","MEAN_MOTION":15.34640469,"ECCENTRICITY":0.00285789,"INCLINATION":81.155,"RA_OF_ASC_NODE":261.9078,"ARG_OF_PERICENTER":155.4571,"MEAN_ANOMALY":204.8036,"EPHEMERIS_TYPE":0,"CLASSIFICATION_TYPE":"U","NORAD_CAT_ID":13771,"ELEMENT_SET_NO":999,"REV_AT_EPOCH":35642,"BSTAR":0.00033440366,"MEAN_MOTION_DOT":0.00011405,"MEAN_MOTION_DDOT":0}]
